[{"OBJECT_NAME":"STARLINK-1826","OBJECT_ID":"2020-073BF","EPOCH":"2023-02-01T16:40:43.626432","MEAN_MOTION":15.06393426,"ECCENTRICITY":0.0001269,"INCLINATION":53.0491,"RA_OF_ASC_NODE":258.3477,"ARG_OF_PERICENTER":92.9405,"MEAN_ANOMALY":267.1729,"EPHEMERIS_TYPE":0,"CLASSIFICATION_TYPE":"U","NORAD_CAT_ID":46723,"ELEMENT_SET_NO":999,"REV_AT_EPOCH":12734,"BSTAR":1.8461e-5,"MEAN_MOTION_DOT":-6.0e-8,"MEAN_MOTION_DDOT":0},{"OBJECT_NAME":"STARLINK-1828","OBJECT_ID":"2020-073BH","EPOCH":"2023-02-02T02:19:16.099104","MEAN_MOTION":15.06395943,"ECCENTRICITY":0.0001188,"INCLINATION":53.0523,"RA_OF_ASC_NODE":296.5424,"ARG_OF_PERICENTER":96.5337,"MEAN_ANOMALY":263.5787,"EPHEMERIS_TYPE":0,"CLASSIFICATION_TYPE":"U","NORAD_CAT_ID":46725,"ELEMENT_SET_NO":999,"REV_AT_EPOCH":12684,"BSTAR":2.0153e-5,"MEAN_MOTION_DOT":1.9e-7,"MEAN_MOTION_DDOT":0},{"OBJECT_NAME":"STARLINK-1829","OBJECT_ID":"2020-073BJ","EPOCH":"2023-02-01T23:43:19.516512","MEAN_MOTION":15.06399097,"ECCENTRICITY":0.0001159,"INCLINATION":53.0524,"RA_OF_ASC_NODE":282.0169,"ARG_OF_PERICENTER":95.7528,"MEAN_ANOMALY":264.3593,"EPHEMERIS_TYPE":0,"CLASSIFICATION_TYPE":"U","NORAD_CAT_ID":46726,"ELEMENT_SET_NO":999,"REV_AT_EPOCH":12703,"BSTAR":0.00021228,"MEAN_MOTION_DOT":2.882e-5,"MEAN_MOTION_DDOT":0},{"OBJECT_NAME":"STARLINK-1830","OBJECT_ID":"2020-073BK","EPOCH":"2023-02-02T00:17:11.717088","MEAN_MOTION":15.0639477,"ECCENTRICITY":0.0001281,"INCLINATION":53.05,"RA_OF_ASC_NODE":256.9247,"ARG_OF_PERICENTER":89.3935,"MEAN_ANOMALY":270.7201,"EPHEMERIS_TYPE":0,"CLASSIFICATION_TYPE":"U","NORAD_CAT_ID":46727,"ELEMENT_SET_NO":999,"REV_AT_EPOCH":12739,"BSTAR":3.2152e-5,"MEAN_MOTION_DOT":1.97e-6,"MEAN_MOTION_DDOT":0},{"OBJECT_NAME":"FLOCK 4V-22","OBJECT_ID":"2020-061BL","EPOCH":"2023-02-01T10:34:26.987232","MEAN_MOTION":15.26599111,"ECCENTRICITY":0.0006573,"INCLINATION":97.3618,"RA_OF_ASC_NODE":104.0392,"ARG_OF_PERICENTER":44.8175,"MEAN_ANOMALY":315.3577,"EPHEMERIS_TYPE":0,"CLASSIFICATION_TYPE":"U","NORAD_CAT_ID":46735,"ELEMENT_SET_NO":999,"REV_AT_EPOCH":12659,"BSTAR":0.00047139,"MEAN_MOTION_DOT":0.00012284,"MEAN_MOTION_DDOT":0},{"OBJECT_NAME":"FLOCK 4V-23","OBJECT_ID":"2020-061BM","EPOCH":"2023-02-01T12:08:21.519168","MEAN_MOTION":15.26055102,"ECCENTRICITY":0.0004035,"INCLINATION":97.3691,"RA_OF_ASC_NODE":104.7847,"ARG_OF_PERICENTER":28.4837,"MEAN_ANOMALY":331.6621,"EPHEMERIS_TYPE":0,"CLASSIFICATION_TYPE":"U","NORAD_CAT_ID":46737,"ELEMENT_SET_NO":999,"REV_AT_EPOCH":12653,"BSTAR":0.00043692,"MEAN_MOTION_DOT":0.0001119,"MEAN_MOTION_DDOT":0},{"OBJECT_NAME":"FLOCK 4V-24","OBJECT_ID":"2020-061BN","EPOCH":"2023-02-02T03:45:14.312160","MEAN_MOTION":15.28491582,"ECCENTRICITY":0.0006577,"INCLINATION":97.38,"RA_OF_ASC_NODE":106.454,"ARG_OF_PERICENTER":45.3325,"MEAN_ANOMALY":314.8454,"EPHEMERIS_TYPE":0,"CLASSIFICATION_TYPE":"U","NORAD_CAT_ID":46738,"ELEMENT_SET_NO":999,"REV_AT_EPOCH":12621,"BSTAR":0.0010946,"MEAN_MOTION_DOT":0.00030386,"MEAN_MOTION_DDOT":0},{"OBJECT_NAME":"STARLINK-1848","OBJECT_ID":"2020-074B","EPOCH":"2023-02-01T18:33:30.951360","MEAN_MOTION":15.06392369,"ECCENTRICITY":0.0001231,"INCLINATION":53.0553,"RA_OF_ASC_NODE":7.9881,"ARG_OF_PERICENTER":109.9425,"MEAN_ANOMALY":250.1697,"EPHEMERIS_TYPE":0,"CLASSIFICATION_TYPE":"U","NORAD_CAT_ID":46740,"ELEMENT_SET_NO":999,"REV_AT_EPOCH":12600,"BSTAR":2.4952e-5,"MEAN_MOTION_DOT":9.0e-7,"MEAN_MOTION_DDOT":0},{"OBJECT_NAME":"STARLINK-1865","OBJECT_ID":"2020-074C","EPOCH":"2023-02-02T02:55:45.555456","MEAN_MOTION":15.06398736,"ECCENTRICITY":0.0001383,"INCLINATION":53.053,"RA_OF_ASC_NODE":1.4325,"ARG_OF_PERICENTER":99.2016,"MEAN_ANOMALY":260.9129,"EPHEMERIS_TYPE":0,"CLASSIFICATION_TYPE":"U","NORAD_CAT_ID":46741,"ELEMENT_SET_NO":999,"REV_AT_EPOCH":12613,"BSTAR":2.7059e-5,"MEAN_MOTION_DOT":1.22e-6,"MEAN_MOTION_DDOT":0},{"OBJECT_NAME":"STARLINK-1872","OBJECT_ID":"2020-074D","EPOCH":"2023-02-02T01:37:53.521248","MEAN_MOTION":15.64424191,"ECCENTRICITY":0.0002786,"INCLINATION":53.0518,"RA_OF_ASC_NODE":316.7843,"ARG_OF_PERICENTER":126.2283,"MEAN_ANOMALY":233.8989,"EPHEMERIS_TYPE":0,"CLASSIFICATION_TYPE":"U","NORAD_CAT_ID":46742,"ELEMENT_SET_NO":999,"REV_AT_EPOCH":12675,"BSTAR":0.00054211,"MEAN_MOTION_DOT":0.00052813,"MEAN_MOTION_DDOT":0},{"OBJECT_NAME":"STARLINK-1892","OBJECT_ID":"2020-074E","EPOCH":"2023-02-02T04:20:40.988544","MEAN_MOTION":15.06399891,"ECCENTRICITY":0.0001429,"INCLINATION":53.0566,"RA_OF_ASC_NODE":1.1501,"ARG_OF_PERICENTER":102.7717,"MEAN_ANOMALY":257.3432,"EPHEMERIS_TYPE":0,"CLASSIFICATION_TYPE":"U","NORAD_CAT_ID":46743,"ELEMENT_SET_NO":999,"REV_AT_EPOCH":12615,"BSTAR":7.7868e-5,"MEAN_MOTION_DOT":8.79e-6,"MEAN_MOTION_DDOT":0},{"OBJECT_NAME":"STARLINK-1894","OBJECT_ID":"2020-074F","EPOCH":"2023-02-02T03:10:19.507872","MEAN_MOTION":15.06395798,"ECCENTRICITY":0.0001575,"INCLINATION":53.0541,"RA_OF_ASC_NODE":1.3686,"ARG_OF_PERICENTER":88.0975,"MEAN_ANOMALY":272.0194,"EPHEMERIS_TYPE":0,"CLASSIFICATION_TYPE":"U","NORAD_CAT_ID":46744,"ELEMENT_SET_NO":999,"REV_AT_EPOCH":12612,"BSTAR":6.2534e-5,"MEAN_MOTION_DOT":6.5e-6,"MEAN_MOTION_DDOT":0},{"OBJECT_NAME":"STARLINK-1905","OBJECT_ID":"2020-074H","EPOCH":"2023-02-02T03:32:55.158432","MEAN_MOTION":15.06396267,"ECCENTRICITY":0.0001554,"INCLINATION":53.0557,"RA_OF_ASC_NODE":1.3106,"ARG_OF_PERICENTER":102.1821,"MEAN_ANOMALY":257.9342,"EPHEMERIS_TYPE":0,"CLASSIFICATION_TYPE":"U","NORAD_CAT_ID":46746,"ELEMENT_SET_NO":999,"REV_AT_EPOCH":12614,"BSTAR":1.4282e-5,"MEAN_MOTION_DOT":-6.9e-7,"MEAN_MOTION_DDOT":0},{"OBJECT_NAME":"STARLINK-1908","OBJECT_ID":"2020-074J","EPOCH":"2023-02-02T03:02:18.382560","MEAN_MOTION":15.07076095,"ECCENTRICITY":0.0002573,"INCLINATION":53.0544,"RA_OF_ASC_NODE":1.371,"ARG_OF_PERICENTER":113.8246,"MEAN_ANOMALY":246.3014,"EPHEMERIS_TYPE":0,"CLASSIFICATION_TYPE":"U","NORAD_CAT_ID":46747,"ELEMENT_SET_NO":999,"REV_AT_EPOCH":12614,"BSTAR":0.0017868,"MEAN_MOTION_DOT":0.00026927,"MEAN_MOTION_DDOT":0},{"OBJECT_NAME":"STARLINK-1910","OBJECT_ID":"2020-074K","EPOCH":"2023-02-02T03:16:59.574432","MEAN_MOTION":15.06395275,"ECCENTRICITY":0.0001875,"INCLINATION":53.0563,"RA_OF_ASC_NODE":1.354,"ARG_OF_PERICENTER":94.0783,"MEAN_ANOMALY":266.042,"EPHEMERIS_TYPE":0,"CLASSIFICATION_TYPE":"U","NORAD_CAT_ID":46748,"ELEMENT_SET_NO":999,"REV_AT_EPOCH":12614,"BSTAR":5.0332e-5,"MEAN_MOTION_DOT":4.68e-6,"MEAN_MOTION_DDOT":0},{"OBJECT_NAME":"STARLINK-1911","OBJECT_ID":"2020-074L","EPOCH":"2023-02-02T03:27:36.437472","MEAN_MOTION":15.06393472,"ECCENTRICITY":0.0001669,"INCLINATION":53.0537,"RA_OF_ASC_NODE":1.3304,"ARG_OF_PERICENTER":96.0247,"MEAN_ANOMALY":264.0932,"EPHEMERIS_TYPE":0,"CLASSIFICATION_TYPE":"U","NORAD_CAT_ID":46749,"ELEMENT_SET_NO":999,"REV_AT_EPOCH":12614,"BSTAR":-7.77e-5,"MEAN_MOTION_DOT":-1.438e-5,"MEAN_MOTION_DDOT":0},{"OBJECT_NAME":"STARLINK-1920","OBJECT_ID":"2020-074N","EPOCH":"2023-02-02T03:22:18.579648","MEAN_MOTION":15.06389832,"ECCENTRICITY":0.0001412,"INCLINATION":53.0559,"RA_OF_ASC_NODE":1.3492,"ARG_OF_PERICENTER":103.3165,"MEAN_ANOMALY":256.7981,"EPHEMERIS_TYPE":0,"CLASSIFICATION_TYPE":"U","NORAD_CAT_ID":46751,"ELEMENT_SET_NO":999,"REV_AT_EPOCH":12613,"BSTAR":1.1474e-5,"MEAN_MOTION_DOT":-1.11e-6,"MEAN_MOTION_DDOT":0}]
