STARLINK-1826           
1 46723U 20073BF  23032.69494938 -.00000006  00000+0  18461-4 0  9996
2 46723  53.0491 258.3477 0001269  92.9405 267.1729 15.06393426127349
STARLINK-1828           
1 46725U 20073BH  23033.09671411  .00000019  00000+0  20153-4 0  9990
2 46725  53.0523 296.5424 0001188  96.5337 263.5787 15.06395943126841
STARLINK-1829           
1 46726U 20073BJ  23032.98842033  .00002882  00000+0  21228-3 0  9991
2 46726  53.0524 282.0169 0001159  95.7528 264.3593 15.06399097127030
STARLINK-1830           
1 46727U 20073BK  23033.01194117  .00000197  00000+0  32152-4 0  9996
2 46727  53.0500 256.9247 0001281  89.3935 270.7201 15.06394770127398
FLOCK 4V-22             
1 46735U 20061BL  23032.44059013  .00012284  00000+0  47139-3 0  9993
2 46735  97.3618 104.0392 0006573  44.8175 315.3577 15.26599111126594
FLOCK 4V-23             
1 46737U 20061BM  23032.50580462  .00011190  00000+0  43692-3 0  9994
2 46737  97.3691 104.7847 0004035  28.4837 331.6621 15.26055102126535
FLOCK 4V-24             
1 46738U 20061BN  23033.15641565  .00030386  00000+0  10946-2 0  9992
2 46738  97.3800 106.4540 0006577  45.3325 314.8454 15.28491582126210
STARLINK-1848           
1 46740U 20074B   23032.77327490  .00000090  00000+0  24952-4 0  9997
2 46740  53.0553   7.9881 0001231 109.9425 250.1697 15.06392369126007
STARLINK-1865           
1 46741U 20074C   23033.12205504  .00000122  00000+0  27059-4 0  9996
2 46741  53.0530   1.4325 0001383  99.2016 260.9129 15.06398736126137
STARLINK-1872           
1 46742U 20074D   23033.06798057  .00052813  00000+0  54211-3 0  9993
2 46742  53.0518 316.7843 0002786 126.2283 233.8989 15.64424191126756
STARLINK-1892           
1 46743U 20074E   23033.18102996  .00000879  00000+0  77868-4 0  9997
2 46743  53.0566   1.1501 0001429 102.7717 257.3432 15.06399891126152
STARLINK-1894           
1 46744U 20074F   23033.13217023  .00000650  00000+0  62534-4 0  9992
2 46744  53.0541   1.3686 0001575  88.0975 272.0194 15.06395798126124
STARLINK-1905           
1 46746U 20074H   23033.14786063 -.00000069  00000+0  14282-4 0  9992
2 46746  53.0557   1.3106 0001554 102.1821 257.9342 15.06396267126146
STARLINK-1908           
1 46747U 20074J   23033.12660165  .00026927  00000+0  17868-2 0  9996
2 46747  53.0544   1.3710 0002573 113.8246 246.3014 15.07076095126149
STARLINK-1910           
1 46748U 20074K   23033.13680063  .00000468  00000+0  50332-4 0  9994
2 46748  53.0563   1.3540 0001875  94.0783 266.0420 15.06395275126145
STARLINK-1911           
1 46749U 20074L   23033.14417173 -.00001438  00000+0 -77700-4 0  9994
2 46749  53.0537   1.3304 0001669  96.0247 264.0932 15.06393472126146
STARLINK-1920           
1 46751U 20074N   23033.14049282 -.00000111  00000+0  11474-4 0  9991
2 46751  53.0559   1.3492 0001412 103.3165 256.7981 15.06389832126134
